CCSDS_OMM_VERS = 2.0
CREATION_DATE  = 
ORIGINATOR     = 

OBJECT_NAME    = STARLINK-37216
OBJECT_ID      = 2026-063M
CENTER_NAME    = EARTH
REF_FRAME      = TEME
TIME_SYSTEM    = UTC
MEAN_ELEMENT_THEORY = SGP/SGP4

EPOCH          = 2026-04-02T18:00:02.000160
MEAN_MOTION    = 15.99447323
ECCENTRICITY   = .00015299
INCLINATION    = 97.2823
RA_OF_ASC_NODE = 233.5498
ARG_OF_PERICENTER = 75.5954
MEAN_ANOMALY   = 91.9601

EPHEMERIS_TYPE = 0
CLASSIFICATION_TYPE = U
NORAD_CAT_ID   = 68391
ELEMENT_SET_NO = 999
REV_AT_EPOCH   = 232
BSTAR          = -.3650729E-2
MEAN_MOTION_DOT = -.1776907E-1
MEAN_MOTION_DDOT = .9464416E-3

CCSDS_OMM_VERS = 2.0
CREATION_DATE  = 
ORIGINATOR     = 

OBJECT_NAME    = STARLINK-37215
OBJECT_ID      = 2026-063N
CENTER_NAME    = EARTH
REF_FRAME      = TEME
TIME_SYSTEM    = UTC
MEAN_ELEMENT_THEORY = SGP/SGP4

EPOCH          = 2026-04-02T18:00:02.000160
MEAN_MOTION    = 15.99590160
ECCENTRICITY   = .00014882
INCLINATION    = 97.2820
RA_OF_ASC_NODE = 233.5510
ARG_OF_PERICENTER = 81.0804
MEAN_ANOMALY   = 89.0356

EPHEMERIS_TYPE = 0
CLASSIFICATION_TYPE = U
NORAD_CAT_ID   = 68392
ELEMENT_SET_NO = 999
REV_AT_EPOCH   = 232
BSTAR          = -.36570097E-2
MEAN_MOTION_DOT = -.1794076E-1
MEAN_MOTION_DDOT = .9652646E-3

CCSDS_OMM_VERS = 2.0
CREATION_DATE  = 
ORIGINATOR     = 

OBJECT_NAME    = STARLINK-37184
OBJECT_ID      = 2026-063P
CENTER_NAME    = EARTH
REF_FRAME      = TEME
TIME_SYSTEM    = UTC
MEAN_ELEMENT_THEORY = SGP/SGP4

EPOCH          = 2026-04-02T18:00:02.000160
MEAN_MOTION    = 15.99739684
ECCENTRICITY   = .00015975
INCLINATION    = 97.2823
RA_OF_ASC_NODE = 233.5521
ARG_OF_PERICENTER = 72.4321
MEAN_ANOMALY   = 100.2824

EPHEMERIS_TYPE = 0
CLASSIFICATION_TYPE = U
NORAD_CAT_ID   = 68393
ELEMENT_SET_NO = 999
REV_AT_EPOCH   = 232
BSTAR          = -.36836888E-2
MEAN_MOTION_DOT = -.182213E-1
MEAN_MOTION_DDOT = .99556441E-3

CCSDS_OMM_VERS = 2.0
CREATION_DATE  = 
ORIGINATOR     = 

OBJECT_NAME    = STARLINK-37157
OBJECT_ID      = 2026-063Q
CENTER_NAME    = EARTH
REF_FRAME      = TEME
TIME_SYSTEM    = UTC
MEAN_ELEMENT_THEORY = SGP/SGP4

EPOCH          = 2026-04-02T18:00:02.000160
MEAN_MOTION    = 15.99863067
ECCENTRICITY   = .0001617
INCLINATION    = 97.2820
RA_OF_ASC_NODE = 233.5526
ARG_OF_PERICENTER = 66.7918
MEAN_ANOMALY   = 107.9863

EPHEMERIS_TYPE = 0
CLASSIFICATION_TYPE = U
NORAD_CAT_ID   = 68394
ELEMENT_SET_NO = 999
REV_AT_EPOCH   = 232
BSTAR          = -.3653719E-2
MEAN_MOTION_DOT = -.1819945E-1
MEAN_MOTION_DDOT = .99473566E-3

CCSDS_OMM_VERS = 2.0
CREATION_DATE  = 
ORIGINATOR     = 

OBJECT_NAME    = STARLINK-37172
OBJECT_ID      = 2026-063R
CENTER_NAME    = EARTH
REF_FRAME      = TEME
TIME_SYSTEM    = UTC
MEAN_ELEMENT_THEORY = SGP/SGP4

EPOCH          = 2026-04-02T18:00:02.000160
MEAN_MOTION    = 16.00132100
ECCENTRICITY   = .00015881
INCLINATION    = 97.2814
RA_OF_ASC_NODE = 233.5544
ARG_OF_PERICENTER = 73.7100
MEAN_ANOMALY   = 105.7685

EPHEMERIS_TYPE = 0
CLASSIFICATION_TYPE = U
NORAD_CAT_ID   = 68395
ELEMENT_SET_NO = 999
REV_AT_EPOCH   = 232
BSTAR          = -.36307256E-2
MEAN_MOTION_DOT = -.1835985E-1
MEAN_MOTION_DDOT = .10144756E-2

CCSDS_OMM_VERS = 2.0
CREATION_DATE  = 
ORIGINATOR     = 

OBJECT_NAME    = STARLINK-37190
OBJECT_ID      = 2026-063S
CENTER_NAME    = EARTH
REF_FRAME      = TEME
TIME_SYSTEM    = UTC
MEAN_ELEMENT_THEORY = SGP/SGP4

EPOCH          = 2026-04-02T18:00:02.000160
MEAN_MOTION    = 16.00006807
ECCENTRICITY   = .00014955
INCLINATION    = 97.2814
RA_OF_ASC_NODE = 233.5533
ARG_OF_PERICENTER = 73.3323
MEAN_ANOMALY   = 103.5772

EPHEMERIS_TYPE = 0
CLASSIFICATION_TYPE = U
NORAD_CAT_ID   = 68396
ELEMENT_SET_NO = 999
REV_AT_EPOCH   = 232
BSTAR          = -.36843208E-2
MEAN_MOTION_DOT = -.1849746E-1
MEAN_MOTION_DDOT = .10273662E-2

CCSDS_OMM_VERS = 2.0
CREATION_DATE  = 
ORIGINATOR     = 

OBJECT_NAME    = STARLINK-37194
OBJECT_ID      = 2026-063T
CENTER_NAME    = EARTH
REF_FRAME      = TEME
TIME_SYSTEM    = UTC
MEAN_ELEMENT_THEORY = SGP/SGP4

EPOCH          = 2026-04-02T18:00:02.000160
MEAN_MOTION    = 16.00255178
ECCENTRICITY   = .00016109
INCLINATION    = 97.2815
RA_OF_ASC_NODE = 233.5554
ARG_OF_PERICENTER = 65.7478
MEAN_ANOMALY   = 116.0867

EPHEMERIS_TYPE = 0
CLASSIFICATION_TYPE = U
NORAD_CAT_ID   = 68397
ELEMENT_SET_NO = 999
REV_AT_EPOCH   = 232
BSTAR          = -.35725676E-2
MEAN_MOTION_DOT = -.181941E-1
MEAN_MOTION_DDOT = .99871569E-3

CCSDS_OMM_VERS = 2.0
CREATION_DATE  = 
ORIGINATOR     = 

OBJECT_NAME    = STARLINK-37220
OBJECT_ID      = 2026-063U
CENTER_NAME    = EARTH
REF_FRAME      = TEME
TIME_SYSTEM    = UTC
MEAN_ELEMENT_THEORY = SGP/SGP4

EPOCH          = 2026-04-02T18:00:02.000160
MEAN_MOTION    = 16.00790582
ECCENTRICITY   = .00020912
INCLINATION    = 97.2815
RA_OF_ASC_NODE = 233.5577
ARG_OF_PERICENTER = 66.0397
MEAN_ANOMALY   = 120.4043

EPHEMERIS_TYPE = 0
CLASSIFICATION_TYPE = U
NORAD_CAT_ID   = 68398
ELEMENT_SET_NO = 999
REV_AT_EPOCH   = 232
BSTAR          = -.43588938E-2
MEAN_MOTION_DOT = -.228389E-1
MEAN_MOTION_DDOT = .15546241E-2

CCSDS_OMM_VERS = 2.0
CREATION_DATE  = 
ORIGINATOR     = 

OBJECT_NAME    = STARLINK-37187
OBJECT_ID      = 2026-063V
CENTER_NAME    = EARTH
REF_FRAME      = TEME
TIME_SYSTEM    = UTC
MEAN_ELEMENT_THEORY = SGP/SGP4

EPOCH          = 2026-04-02T18:00:02.000160
MEAN_MOTION    = 16.00392506
ECCENTRICITY   = .00016257
INCLINATION    = 97.2813
RA_OF_ASC_NODE = 233.5566
ARG_OF_PERICENTER = 66.9644
MEAN_ANOMALY   = 117.1108

EPHEMERIS_TYPE = 0
CLASSIFICATION_TYPE = U
NORAD_CAT_ID   = 68399
ELEMENT_SET_NO = 999
REV_AT_EPOCH   = 232
BSTAR          = -.35747265E-2
MEAN_MOTION_DOT = -.1834573E-1
MEAN_MOTION_DDOT = .10160877E-2

CCSDS_OMM_VERS = 2.0
CREATION_DATE  = 
ORIGINATOR     = 

OBJECT_NAME    = STARLINK-36235
OBJECT_ID      = 2026-063W
CENTER_NAME    = EARTH
REF_FRAME      = TEME
TIME_SYSTEM    = UTC
MEAN_ELEMENT_THEORY = SGP/SGP4

EPOCH          = 2026-04-02T18:00:02.000160
MEAN_MOTION    = 16.00671292
ECCENTRICITY   = .00015361
INCLINATION    = 97.2810
RA_OF_ASC_NODE = 233.5586
ARG_OF_PERICENTER = 80.5141
MEAN_ANOMALY   = 108.5827

EPHEMERIS_TYPE = 0
CLASSIFICATION_TYPE = U
NORAD_CAT_ID   = 68400
ELEMENT_SET_NO = 999
REV_AT_EPOCH   = 232
BSTAR          = -.35610636E-2
MEAN_MOTION_DOT = -.1856481E-1
MEAN_MOTION_DDOT = .1042517E-2

CCSDS_OMM_VERS = 2.0
CREATION_DATE  = 
ORIGINATOR     = 

OBJECT_NAME    = STARLINK-37175
OBJECT_ID      = 2026-063X
CENTER_NAME    = EARTH
REF_FRAME      = TEME
TIME_SYSTEM    = UTC
MEAN_ELEMENT_THEORY = SGP/SGP4

EPOCH          = 2026-04-02T18:00:02.000160
MEAN_MOTION    = 16.00803270
ECCENTRICITY   = .00016053
INCLINATION    = 97.2812
RA_OF_ASC_NODE = 233.5601
ARG_OF_PERICENTER = 70.4024
MEAN_ANOMALY   = 121.2648

EPHEMERIS_TYPE = 0
CLASSIFICATION_TYPE = U
NORAD_CAT_ID   = 68401
ELEMENT_SET_NO = 999
REV_AT_EPOCH   = 232
BSTAR          = -.35380228E-2
MEAN_MOTION_DOT = -.1858405E-1
MEAN_MOTION_DDOT = .10461905E-2

CCSDS_OMM_VERS = 2.0
CREATION_DATE  = 
ORIGINATOR     = 

OBJECT_NAME    = STARLINK-36360
OBJECT_ID      = 2026-063Y
CENTER_NAME    = EARTH
REF_FRAME      = TEME
TIME_SYSTEM    = UTC
MEAN_ELEMENT_THEORY = SGP/SGP4

EPOCH          = 2026-04-02T18:00:02.000160
MEAN_MOTION    = 16.00951512
ECCENTRICITY   = .00014945
INCLINATION    = 97.2811
RA_OF_ASC_NODE = 233.5611
ARG_OF_PERICENTER = 76.7215
MEAN_ANOMALY   = 117.4227

EPHEMERIS_TYPE = 0
CLASSIFICATION_TYPE = U
NORAD_CAT_ID   = 68402
ELEMENT_SET_NO = 999
REV_AT_EPOCH   = 232
BSTAR          = -.35608966E-2
MEAN_MOTION_DOT = -.1885974E-1
MEAN_MOTION_DDOT = .10776431E-2

